XRISM                   
1 57800U 23137A   26096.30718663  .00006076  00000+0  34096-3 0  9996
2 57800  31.0014 104.9849 0007794 315.9949  44.0069 15.11843602141979
ACS3                    
1 59588U 24077B   26096.27842176  .00040184  00000+0  31171-1 0  9995
2 59588  97.1939  31.1912 0073158  14.9417 345.3887 13.91072170 98031
HTV-X1                  
1 66174U 25241A   26096.03908516  .00006812  00000+0  22481-3 0  9999
2 66174  51.6366 301.2234 0007373 278.3754  81.6391 15.32556413 25138
SZ-21 MODULE            
1 66515U 25246C   26096.17762387  .00047296  00000+0  36860-3 0  9999
2 66515  41.4756  33.8728 0003704 235.4775 124.5718 15.70861135 22391
