[ {"OBJECT_NAME": "XRISM", "OBJECT_ID": "2023-137A", "EPOCH": "2026-04-06T07:22:20.924832", "MEAN_MOTION": 15.11843602, "ECCENTRICITY": 0.00077948, "INCLINATION": 31.0014, "RA_OF_ASC_NODE": 104.9849, "ARG_OF_PERICENTER": 315.9949, "MEAN_ANOMALY": 44.0069, "EPHEMERIS_TYPE": 0, "CLASSIFICATION_TYPE": "U", "NORAD_CAT_ID": 57800, "ELEMENT_SET_NO": 999, "REV_AT_EPOCH": 14197, "BSTAR": 0.00034095748, "MEAN_MOTION_DOT": 6.076e-05, "MEAN_MOTION_DDOT": 0}, {"OBJECT_NAME": "ACS3", "OBJECT_ID": "2024-077B", "EPOCH": "2026-04-06T06:40:55.640064", "MEAN_MOTION": 13.9107217, "ECCENTRICITY": 0.00731582, "INCLINATION": 97.1939, "RA_OF_ASC_NODE": 31.1912, "ARG_OF_PERICENTER": 14.9417, "MEAN_ANOMALY": 345.3887, "EPHEMERIS_TYPE": 0, "CLASSIFICATION_TYPE": "U", "NORAD_CAT_ID": 59588, "ELEMENT_SET_NO": 999, "REV_AT_EPOCH": 9803, "BSTAR": 0.031170813, "MEAN_MOTION_DOT": 0.00040184, "MEAN_MOTION_DDOT": 0}, {"OBJECT_NAME": "HTV-X1", "OBJECT_ID": "2025-241A", "EPOCH": "2026-04-06T00:56:16.957824", "MEAN_MOTION": 15.32556413, "ECCENTRICITY": 0.00073732, "INCLINATION": 51.6366, "RA_OF_ASC_NODE": 301.2234, "ARG_OF_PERICENTER": 278.3754, "MEAN_ANOMALY": 81.6391, "EPHEMERIS_TYPE": 0, "CLASSIFICATION_TYPE": "U", "NORAD_CAT_ID": 66174, "ELEMENT_SET_NO": 999, "REV_AT_EPOCH": 2513, "BSTAR": 0.00022481052, "MEAN_MOTION_DOT": 6.812e-05, "MEAN_MOTION_DDOT": 0}, {"OBJECT_NAME": "SZ-21 MODULE", "OBJECT_ID": "2025-246C", "EPOCH": "2026-04-06T04:15:46.702368", "MEAN_MOTION": 15.70861135, "ECCENTRICITY": 0.00037043, "INCLINATION": 41.4756, "RA_OF_ASC_NODE": 33.8728, "ARG_OF_PERICENTER": 235.4775, "MEAN_ANOMALY": 124.5718, "EPHEMERIS_TYPE": 0, "CLASSIFICATION_TYPE": "U", "NORAD_CAT_ID": 66515, "ELEMENT_SET_NO": 999, "REV_AT_EPOCH": 2239, "BSTAR": 0.00036859962, "MEAN_MOTION_DOT": 0.00047296, "MEAN_MOTION_DDOT": 0}]